{
  "type": "FeatureCollection",
  "features": [
    {
      "type": "Feature",
      "properties": {
        "norad_id": 38250,
        "name": "BEIDOU-2 M3 (C11)",
        "group": "beidou",
        "lat": -54.05035822890601,
        "lon": -117.59601015946883,
        "alt_km": 21466.463367583205,
        "timestamp": "2025-12-08T10:52:03.212556+00:00",
        "meta_object_name": "BEIDOU-2 M3 (C11)",
        "meta_object_id": "2012-018A",
        "meta_epoch": "2025-12-05T21:12:32.531040",
        "meta_mean_motion": 1.86229708,
        "meta_eccentricity": 0.00244284,
        "meta_inclination": 55.926,
        "meta_ra_of_asc_node": 311.388,
        "meta_arg_of_pericenter": 273.8805,
        "meta_mean_anomaly": 85.8231,
        "meta_ephemeris_type": 0,
        "meta_classification_type": "U",
        "meta_norad_cat_id": 38250,
        "meta_element_set_no": 999,
        "meta_rev_at_epoch": 9234,
        "meta_bstar": 0,
        "meta_mean_motion_dot": -7e-07,
        "meta_mean_motion_ddot": 0,
        "tle_line1": "1 38250U 12018A   25339.88370985 -.00000070  00000+0  00000+0 0  9996",
        "tle_line2": "2 38250  55.9260 311.3880 0024428 273.8805  85.8231  1.86229708 92342"
      },
      "geometry": {
        "type": "Point",
        "coordinates": [
          -117.59601015946883,
          -54.05035822890601
        ]
      }
    },
    {
      "type": "Feature",
      "properties": {
        "norad_id": 38251,
        "name": "BEIDOU-2 M4 (C12)",
        "group": "beidou",
        "lat": -26.03748650542215,
        "lon": -68.86113523684159,
        "alt_km": 21504.019643253523,
        "timestamp": "2025-12-08T10:52:03.212566+00:00",
        "meta_object_name": "BEIDOU-2 M4 (C12)",
        "meta_object_id": "2012-018B",
        "meta_epoch": "2025-12-06T21:21:07.920864",
        "meta_mean_motion": 1.86229417,
        "meta_eccentricity": 0.00155481,
        "meta_inclination": 55.8267,
        "meta_ra_of_asc_node": 310.5837,
        "meta_arg_of_pericenter": 277.2746,
        "meta_mean_anomaly": 82.5325,
        "meta_ephemeris_type": 0,
        "meta_classification_type": "U",
        "meta_norad_cat_id": 38251,
        "meta_element_set_no": 999,
        "meta_rev_at_epoch": 9236,
        "meta_bstar": 0,
        "meta_mean_motion_dot": -7e-07,
        "meta_mean_motion_ddot": 0,
        "tle_line1": "1 38251U 12018B   25340.88967501 -.00000070  00000+0  00000+0 0  9995",
        "tle_line2": "2 38251  55.8267 310.5837 0015548 277.2746  82.5325  1.86229417 92364"
      },
      "geometry": {
        "type": "Point",
        "coordinates": [
          -68.86113523684159,
          -26.03748650542215
        ]
      }
    },
    {
      "type": "Feature",
      "properties": {
        "norad_id": 38775,
        "name": "BEIDOU-2 M6 (C14)",
        "group": "beidou",
        "lat": 15.06529049962203,
        "lon": -121.0837941639184,
        "alt_km": 21556.95593468348,
        "timestamp": "2025-12-08T10:52:03.212578+00:00",
        "meta_object_name": "BEIDOU-2 M6 (C14)",
        "meta_object_id": "2012-050B",
        "meta_epoch": "2025-12-06T01:31:40.709568",
        "meta_mean_motion": 1.86230702,
        "meta_eccentricity": 0.00109743,
        "meta_inclination": 56.3728,
        "meta_ra_of_asc_node": 69.289,
        "meta_arg_of_pericenter": 345.7667,
        "meta_mean_anomaly": 14.2153,
        "meta_ephemeris_type": 0,
        "meta_classification_type": "U",
        "meta_norad_cat_id": 38775,
        "meta_element_set_no": 999,
        "meta_rev_at_epoch": 8971,
        "meta_bstar": 0,
        "meta_mean_motion_dot": -4.7e-07,
        "meta_mean_motion_ddot": 0,
        "tle_line1": "1 38775U 12050B   25340.06366562 -.00000047  00000+0  00000+0 0  9996",
        "tle_line2": "2 38775  56.3728  69.2890 0010974 345.7667  14.2153  1.86230702 89716"
      },
      "geometry": {
        "type": "Point",
        "coordinates": [
          -121.0837941639184,
          15.06529049962203
        ]
      }
    },
    {
      "type": "Feature",
      "properties": {
        "norad_id": 38953,
        "name": "BEIDOU-2 G6 (C02)",
        "group": "beidou",
        "lat": -3.683546425615022,
        "lon": -35.5923327058026,
        "alt_km": 35762.64927574347,
        "timestamp": "2025-12-08T10:52:03.212589+00:00",
        "meta_object_name": "BEIDOU-2 G6 (C02)",
        "meta_object_id": "2012-059A",
        "meta_epoch": "2025-12-07T20:53:01.861152",
        "meta_mean_motion": 1.00270169,
        "meta_eccentricity": 0.00076498,
        "meta_inclination": 3.9366,
        "meta_ra_of_asc_node": 75.5513,
        "meta_arg_of_pericenter": 289.3533,
        "meta_mean_anomaly": 109.2777,
        "meta_ephemeris_type": 0,
        "meta_classification_type": "U",
        "meta_norad_cat_id": 38953,
        "meta_element_set_no": 999,
        "meta_rev_at_epoch": 4799,
        "meta_bstar": 0,
        "meta_mean_motion_dot": -1.74e-06,
        "meta_mean_motion_ddot": 0,
        "tle_line1": "1 38953U 12059A   25341.87016043 -.00000174  00000+0  00000+0 0  9990",
        "tle_line2": "2 38953   3.9366  75.5513 0007649 289.3533 109.2777  1.00270169 47990"
      },
      "geometry": {
        "type": "Point",
        "coordinates": [
          -35.5923327058026,
          -3.683546425615022
        ]
      }
    },
    {
      "type": "Feature",
      "properties": {
        "norad_id": 40748,
        "name": "BEIDOU-3S M2S (C58)",
        "group": "beidou",
        "lat": -8.406969880441082,
        "lon": 134.52066647834678,
        "alt_km": 21522.396434677197,
        "timestamp": "2025-12-08T10:52:03.212601+00:00",
        "meta_object_name": "BEIDOU-3S M2S (C58)",
        "meta_object_id": "2015-037A",
        "meta_epoch": "2025-12-07T02:16:25.877280",
        "meta_mean_motion": 1.86229046,
        "meta_eccentricity": 0.00123234,
        "meta_inclination": 55.0438,
        "meta_ra_of_asc_node": 308.6574,
        "meta_arg_of_pericenter": 268.1088,
        "meta_mean_anomaly": 91.7345,
        "meta_ephemeris_type": 0,
        "meta_classification_type": "U",
        "meta_norad_cat_id": 40748,
        "meta_element_set_no": 999,
        "meta_rev_at_epoch": 7054,
        "meta_bstar": 0,
        "meta_mean_motion_dot": -7e-07,
        "meta_mean_motion_ddot": 0,
        "tle_line1": "1 40748U 15037A   25341.09474395 -.00000070  00000+0  00000+0 0  9991",
        "tle_line2": "2 40748  55.0438 308.6574 0012323 268.1088  91.7345  1.86229046 70540"
      },
      "geometry": {
        "type": "Point",
        "coordinates": [
          134.52066647834678,
          -8.406969880441082
        ]
      }
    },
    {
      "type": "Feature",
      "properties": {
        "norad_id": 40749,
        "name": "BEIDOU-3S M1S (C57)",
        "group": "beidou",
        "lat": 28.6611711025494,
        "lon": -28.952056261824076,
        "alt_km": 21515.17204504719,
        "timestamp": "2025-12-08T10:52:03.212618+00:00",
        "meta_object_name": "BEIDOU-3S M1S (C57)",
        "meta_object_id": "2015-037B",
        "meta_epoch": "2025-12-01T22:57:46.412352",
        "meta_mean_motion": 1.86253762,
        "meta_eccentricity": 0.0003321,
        "meta_inclination": 55.0451,
        "meta_ra_of_asc_node": 308.8236,
        "meta_arg_of_pericenter": 355.9906,
        "meta_mean_anomaly": 3.9975,
        "meta_ephemeris_type": 0,
        "meta_classification_type": "U",
        "meta_norad_cat_id": 40749,
        "meta_element_set_no": 999,
        "meta_rev_at_epoch": 7045,
        "meta_bstar": 0,
        "meta_mean_motion_dot": -6e-07,
        "meta_mean_motion_ddot": 0,
        "tle_line1": "1 40749U 15037B   25335.95678718 -.00000060  00000+0  00000+0 0  9994",
        "tle_line2": "2 40749  55.0451 308.8236 0003321 355.9906   3.9975  1.86253762 70451"
      },
      "geometry": {
        "type": "Point",
        "coordinates": [
          -28.952056261824076,
          28.6611711025494
        ]
      }
    },
    {
      "type": "Feature",
      "properties": {
        "norad_id": 40938,
        "name": "BEIDOU-3S IGSO-2S (C56)",
        "group": "beidou",
        "lat": 47.26458576301111,
        "lon": -31.671158464257527,
        "alt_km": 35883.68423683205,
        "timestamp": "2025-12-08T10:52:03.212643+00:00",
        "meta_object_name": "BEIDOU-3S IGSO-2S (C56)",
        "meta_object_id": "2015-053A",
        "meta_epoch": "2025-12-07T17:59:38.817312",
        "meta_mean_motion": 1.00270783,
        "meta_eccentricity": 0.0060962,
        "meta_inclination": 49.5194,
        "meta_ra_of_asc_node": 261.0646,
        "meta_arg_of_pericenter": 188.6217,
        "meta_mean_anomaly": 353.0712,
        "meta_ephemeris_type": 0,
        "meta_classification_type": "U",
        "meta_norad_cat_id": 40938,
        "meta_element_set_no": 999,
        "meta_rev_at_epoch": 3743,
        "meta_bstar": 0,
        "meta_mean_motion_dot": -1.42e-06,
        "meta_mean_motion_ddot": 0,
        "tle_line1": "1 40938U 15053A   25341.74975483 -.00000142  00000+0  00000+0 0  9996",
        "tle_line2": "2 40938  49.5194 261.0646 0060962 188.6217 353.0712  1.00270783 37435"
      },
      "geometry": {
        "type": "Point",
        "coordinates": [
          -31.671158464257527,
          47.26458576301111
        ]
      }
    }
  ]
}